NORAD_CAT_ID,OBJECT_NAME,OBJECT_TYPE,EPOCH,MEAN_MOTION,ECCENTRICITY,INCLINATION,RA_OF_ASC_NODE,ARG_OF_PERICENTER,MEAN_ANOMALY,BSTAR,MEAN_MOTION_DOT,MEAN_MOTION_DDOT,TLE_LINE0,TLE_LINE1,TLE_LINE2,SEMIMAJOR_AXIS,PERIOD,APOGEE,PERIGEE,DECAYED
56805.0,STARLINK-6064,PAYLOAD,2024-08-14 06:41:50,14.98298243,0.0003225,70.0026,327.6392,268.0066,92.0724,-0.00041745,-5.066e-05,0.0,0 STARLINK-6064,1 56805U 23078AQ  24227.27905579 -.00005066  00000-0 -41745-3 0  9998,2 56805  70.0026 327.6392 0003225 268.0066  92.0724 14.98298243 67695,6950.291,96.109,574.398,569.915,0.0
56805.0,STARLINK-6064,PAYLOAD,2024-08-14 13:06:20,14.98332897,0.000312,69.9993,326.9602,263.3649,96.7155,-0.00012209,-1.55e-05,0.0,0 STARLINK-6064,1 56805U 23078AQ  24227.54606943 -.00001550  00000-0 -12209-3 0  9998,2 56805  69.9993 326.9602 0003120 263.3649  96.7155 14.98332897 67738,6950.184,96.107,574.217,569.88,0.0
56805.0,STARLINK-6064,PAYLOAD,2024-08-14 14:42:27,14.98341476,0.0003148,70.0009,326.7944,270.3844,89.6954,-0.00011104,-1.418e-05,0.0,0 STARLINK-6064,1 56805U 23078AQ  24227.61282389 -.00001418  00000-0 -11104-3 0  9996,2 56805  70.0009 326.7944 0003148 270.3844  89.6954 14.98341476 67484,6950.157,96.106,574.21,569.834,0.0
56805.0,STARLINK-6064,PAYLOAD,2024-08-15 00:19:16,14.98314146,0.0002952,70.0013,325.7852,266.9728,93.1094,0.00041133,4.816e-05,0.0,0 STARLINK-6064,1 56805U 23078AQ  24228.01338234  .00004816  00000-0  41133-3 0  9990,2 56805  70.0013 325.7852 0002952 266.9728  93.1094 14.98314146 67805,6950.242,96.108,574.159,570.055,0.0
56805.0,STARLINK-6064,PAYLOAD,2024-08-15 13:08:20,14.98327916,0.0003005,70.0009,324.4387,267.0811,93.0004,0.00041769,4.894e-05,0.0,0 STARLINK-6064,1 56805U 23078AQ  24228.54745776  .00004894  00000-0  41769-3 0  9992,2 56805  70.0009 324.4387 0003005 267.0811  93.0004 14.98327916 67623,6950.199,96.107,574.153,569.976,0.0
56805.0,STARLINK-6064,PAYLOAD,2024-08-16 09:58:07,14.9831805,0.0003037,69.9992,322.2496,273.0847,86.9964,0.00016538,1.88e-05,0.0,0 STARLINK-6064,1 56805U 23078AQ  24229.41535890  .00001880  00000-0  16538-3 0  9991,2 56805  69.9992 322.2496 0003037 273.0847  86.9964 14.98318050 68018,6950.23,96.108,574.206,569.984,0.0
56805.0,STARLINK-6064,PAYLOAD,2024-08-17 08:23:58,14.98345082,0.0002591,70.0004,319.8934,260.2044,99.8822,-0.00013918,-1.754e-05,0.0,0 STARLINK-6064,1 56805U 23078AQ  24230.34998565 -.00001754  00000-0 -13918-3 0  9998,2 56805  70.0004 319.8934 0002591 260.2044  99.8822 14.98345082 68151,6950.146,96.106,573.812,570.21,0.0
56805.0,STARLINK-6064,PAYLOAD,2024-08-17 16:24:36,14.98371292,0.0003079,69.9988,319.0507,261.9846,98.0964,0.00014652,1.657e-05,0.0,0 STARLINK-6064,1 56805U 23078AQ  24230.68375516  .00001657  00000-0  14652-3 0  9996,2 56805  69.9988 319.0507 0003079 261.9846  98.0964 14.98371292 68203,6950.065,96.104,574.07,569.79,0.0
56805.0,STARLINK-6064,PAYLOAD,2024-08-18 05:13:19,14.98570753,0.0005131,69.9979,317.7046,275.2251,84.8322,0.002382,0.00028628,0.0,0 STARLINK-6064,1 56805U 23078AQ  24231.21758811  .00028628  00000-0  23820-2 0  9992,2 56805  69.9979 317.7046 0005131 275.2251  84.8322 14.98570753 68287,6949.448,96.092,574.879,567.748,0.0
56805.0,STARLINK-6064,PAYLOAD,2024-08-18 06:52:03,14.96528526,0.0007458,69.9984,317.5399,24.5321,335.619,-0.020994,-0.00231636,0.0,0 STARLINK-6064,1 56805U 23078AQ  24231.28614744 -.00231636  00000-0 -20994-1 0  9990,2 56805  69.9984 317.5399 0007458  24.5321 335.6190 14.96528526 68299,6955.769,96.223,582.822,572.447,0.0
56805.0,STARLINK-6064,PAYLOAD,2024-08-18 20:00:01,14.98324524,0.0003078,70.0022,316.1537,272.8826,166.3192,-0.0039462,-0.00046859,0.0,0 STARLINK-6064,1 56805U 23078AQ  24231.83335648 -.00046859  00000-0 -39462-2 0  9996,2 56805  70.0022 316.1537 0003078 272.8826 166.3192 14.98324524 68370,6950.21,96.107,574.214,569.936,0.0
56805.0,STARLINK-6064,PAYLOAD,2024-08-18 21:15:02,14.98339727,0.0002864,70.0016,316.0271,266.4873,93.5959,4.4082e-05,4.33e-06,0.0,0 STARLINK-6064,1 56805U 23078AQ  24231.88544815  .00000433  00000-0  44082-4 0  9991,2 56805  70.0016 316.0271 0002864 266.4873  93.5959 14.98339727 68384,6950.163,96.106,574.018,570.037,0.0
56805.0,STARLINK-6064,PAYLOAD,2024-08-18 22:00:00,14.98306852,0.0003089,70.0022,315.9436,270.3878,258.1192,-0.001999,-0.0002385,0.0,0 STARLINK-6064,1 56805U 23078AQ  24231.91667824 -.00023850  00000-0 -19990-2 0  9999,2 56805  70.0022 315.9436 0003089 270.3878 258.1192 14.98306852  5710,6950.264,96.108,574.276,569.983,0.0
56805.0,STARLINK-6064,PAYLOAD,2024-08-19 11:40:17,14.98323855,0.0003103,69.9997,314.5078,266.2431,93.8373,-0.00030194,-3.693e-05,0.0,0 STARLINK-6064,1 56805U 23078AQ  24232.48630788 -.00003693  00000-0 -30194-3 0  9994,2 56805  69.9997 314.5078 0003103 266.2431  93.8373 14.98323855 68470,6950.212,96.107,574.234,569.92,0.0
56805.0,STARLINK-6064,PAYLOAD,2024-08-20 05:17:44,14.98329788,0.0002932,70.0002,312.6571,266.1056,93.9768,-4.8061e-05,-6.66e-06,0.0,0 STARLINK-6064,1 56805U 23078AQ  24233.22065595 -.00000666  00000-0 -48061-4 0  9995,2 56805  70.0002 312.6571 0002932 266.1056  93.9768 14.98329788 68580,6950.194,96.107,574.096,570.021,0.0
56805.0,STARLINK-6064,PAYLOAD,2024-08-20 11:42:16,14.98335391,0.0002602,70.0,311.9831,248.4189,111.6693,-4.6502e-05,-6.48e-06,0.0,0 STARLINK-6064,1 56805U 23078AQ  24233.48769198 -.00000648  00000-0 -46502-4 0  9991,2 56805  70.0000 311.9831 0002602 248.4189 111.6693 14.98335391 68620,6950.176,96.107,573.85,570.233,0.0
56805.0,STARLINK-6064,PAYLOAD,2024-08-20 13:18:24,14.98340394,0.0002593,70.0001,311.8147,249.4224,110.6657,-3.9871e-05,-5.69e-06,0.0,0 STARLINK-6064,1 56805U 23078AQ  24233.55444836 -.00000569  00000-0 -39871-4 0  9991,2 56805  70.0001 311.8147 0002593 249.4224 110.6657 14.98340394 68370,6950.161,96.106,573.828,570.224,0.0
56805.0,STARLINK-6064,PAYLOAD,2024-08-21 11:44:18,14.98319727,0.0003001,70.0001,309.4584,266.7323,93.3493,0.00011508,1.28e-05,0.0,0 STARLINK-6064,1 56805U 23078AQ  24234.48909945  .00001280  00000-0  11508-3 0  9996,2 56805  70.0001 309.4584 0003001 266.7323  93.3493 14.98319727 68770,6950.225,96.108,574.175,570.004,0.0
56805.0,STARLINK-6064,PAYLOAD,2024-08-21 14:56:34,14.98321574,0.0002987,70.0003,309.1222,267.4378,92.6439,0.00012868,1.442e-05,0.0,0 STARLINK-6064,1 56805U 23078AQ  24234.62261864  .00001442  00000-0  12868-3 0  9993,2 56805  70.0003 309.1222 0002987 267.4378  92.6439 14.98321574 68537,6950.219,96.108,574.16,570.008,0.0
